OBJECT_NAME,OBJECT_ID,EPOCH,MEAN_MOTION,ECCENTRICITY,INCLINATION,RA_OF_ASC_NODE,ARG_OF_PERICENTER,MEAN_ANOMALY,EPHEMERIS_TYPE,CLASSIFICATION_TYPE,NORAD_CAT_ID,ELEMENT_SET_NO,REV_AT_EPOCH,BSTAR,MEAN_MOTION_DOT,MEAN_MOTION_DDOT
STARLINK-35759,2026-117J,2026-06-17T04:03:54.730080,15.82044340,.0001034,53.1572,243.5593,80.5066,279.6074,0,U,69246,999,297,.91774E-3,.194891E-2,0
STARLINK-37238,2026-117K,2026-06-17T03:57:31.012128,15.82044413,.0001046,53.1569,243.5289,63.2743,296.8387,0,U,69247,999,297,.91939E-3,.195252E-2,0
STARLINK-37412,2026-117L,2026-06-17T03:52:39.756000,15.82010339,.0001064,53.1569,243.5058,71.2110,288.9028,0,U,69248,999,297,.78049E-3,.164796E-2,0
STARLINK-37398,2026-117M,2026-06-17T03:58:51.556800,15.80899244,.000122,53.1579,243.5358,51.3961,308.7171,0,U,69249,999,297,.68565E-3,.136958E-2,0
STARLINK-37499,2026-117N,2026-06-17T03:50:11.447808,15.82005088,.0001225,53.1569,243.4941,54.8893,305.2245,0,U,69250,999,297,.80532E-3,.170126E-2,0
STARLINK-37489,2026-117P,2026-06-17T03:47:39.463296,15.81999240,.0000921,53.1573,243.4828,77.2883,282.8243,0,U,69251,999,297,.85309E-3,.180428E-2,0
STARLINK-37434,2026-117Q,2026-06-17T03:43:22.672128,15.82010534,.0000789,53.1569,243.4604,92.0784,268.0329,0,U,69252,999,297,.55423E-3,.116157E-2,0
STARLINK-37368,2026-117R,2026-06-17T03:33:40.053600,15.81999633,.0000966,53.1574,243.4160,78.8773,281.2358,0,U,69253,999,297,.76096E-3,.160493E-2,0
STARLINK-37517,2026-117S,2026-06-17T03:31:46.098912,15.82029899,.0000804,53.1571,243.4071,51.0468,309.0627,0,U,69254,999,297,.86269E-3,.182777E-2,0
STARLINK-37378,2026-117T,2026-06-17T03:31:17.478912,15.82030705,.000126,53.1574,243.4048,36.4381,323.6728,0,U,69255,999,297,.90827E-3,.192701E-2,0
STARLINK-37396,2026-117U,2026-06-17T03:27:45.539712,15.82016803,.0000853,53.1568,243.3854,31.6343,328.4731,0,U,69256,999,297,.66417E-3,.139763E-2,0
STARLINK-37508,2026-117V,2026-06-17T03:30:49.247712,15.80850708,.0001057,53.1575,243.4001,26.8804,333.2274,0,U,69257,999,297,.63415E-3,.126175E-2,0
STARLINK-37276,2026-117W,2026-06-17T02:52:00.162048,15.80947432,.0000811,53.1569,243.2162,110.3208,249.7901,0,U,69258,999,297,.11096E-2,.224873E-2,0
STARLINK-37518,2026-117X,2026-06-17T02:53:46.377024,15.80919416,.0001366,53.1569,243.2250,33.7241,326.3868,0,U,69259,999,297,.34518E-3,.68114E-3,0
STARLINK-37478,2026-117Y,2026-06-17T02:54:06.064128,15.80901587,.000117,53.1574,243.2276,33.9597,326.1500,0,U,69260,999,297,.79746E-3,.15985E-2,0
STARLINK-37506,2026-117Z,2026-06-17T02:53:23.551872,15.80937053,.000111,53.1570,243.2229,119.5232,240.5902,0,U,69261,999,297,.10897E-2,.220609E-2,0
STARLINK-37503,2026-117AA,2026-06-17T02:53:01.173408,15.80873862,.0000985,53.1575,243.2208,122.3533,237.7585,0,U,69262,999,297,.69359E-3,.138413E-2,0
STARLINK-37502,2026-117AB,2026-06-17T02:52:16.903776,15.80942612,.00008,53.1572,243.2174,107.5683,252.5427,0,U,69263,999,297,.10779E-2,.218211E-2,0
STARLINK-37486,2026-117AC,2026-06-17T02:50:31.489728,15.80947616,.0000916,53.1570,243.2084,134.7341,225.3756,0,U,69264,999,297,.1121E-2,.227251E-2,0
STARLINK-37435,2026-117AD,2026-06-17T02:52:40.277568,15.80888994,.0001355,53.1570,243.2183,29.6797,330.4302,0,U,69265,999,297,.80414E-3,.161127E-2,0
STARLINK-37464,2026-117AE,2026-06-17T02:46:19.462656,15.82072642,.000113,53.1566,243.1882,123.4830,236.6301,0,U,69266,999,297,.11395E-2,.243858E-2,0
KUIPER-00282,2026-118A,2026-06-17T03:46:10.102368,15.34215628,.0011775,51.8593,53.7139,181.2679,178.8278,0,U,69267,999,397,-.91785E-3,-.31189E-3,0
KUIPER-00383,2026-118B,2026-06-17T03:41:47.914656,15.34343077,.0009747,51.8594,53.6946,182.7295,177.3639,0,U,69268,999,397,-.50005E-3,-.17252E-3,0
KUIPER-00527,2026-118C,2026-06-17T03:35:06.202176,15.34774225,.0009396,51.8626,53.6670,171.6619,188.4524,0,U,69269,999,397,-.71136E-3,-.24688E-3,0
KUIPER-00562,2026-118D,2026-06-17T02:47:30.518016,15.38628923,.0001741,51.8723,53.4544,111.7109,248.4063,0,U,69270,999,397,.51016E-3,.19427E-3,0
KUIPER-00570,2026-118E,2026-06-17T03:38:26.625120,15.34598618,.0011433,51.8584,53.6788,185.0464,175.0407,0,U,69271,999,397,.59839E-3,.20076E-3,0
KUIPER-00572,2026-118F,2026-06-17T03:15:09.165600,15.37015047,.0006977,51.8683,53.5844,170.5287,189.5832,0,U,69272,999,397,.51764E-3,.18706E-3,0
KUIPER-00581,2026-118G,2026-06-17T01:47:09.005856,15.36646917,.000877,51.8667,53.9217,174.6713,185.4369,0,U,69273,999,405,.50577E-3,.18055E-3,0
KUIPER-00584,2026-118H,2026-06-17T04:00:01.998720,15.34301389,.0011616,51.8608,53.6358,186.4014,244.0069,0,U,69274,999,257,.16652E-2,.56293E-3,0
KUIPER-00587,2026-118J,2026-06-17T03:19:52.296672,15.36690527,.0008115,51.8635,53.6009,177.6641,182.4385,0,U,69275,999,397,.48594E-3,.17352E-3,0
