STARLINK-35759          
1 69246U 26117J   26168.16938345  .00194891  00000+0  91774-3 0  9998
2 69246  53.1572 243.5593 0001034  80.5066 279.6074 15.82044340  2970
STARLINK-37238          
1 69247U 26117K   26168.16494227  .00195252  00000+0  91939-3 0  9990
2 69247  53.1569 243.5289 0001046  63.2743 296.8387 15.82044413  2971
STARLINK-37412          
1 69248U 26117L   26168.16157125  .00164796  00000+0  78049-3 0  9990
2 69248  53.1569 243.5058 0001064  71.2110 288.9028 15.82010339  2977
STARLINK-37398          
1 69249U 26117M   26168.16587450  .00136958  00000+0  68565-3 0  9990
2 69249  53.1579 243.5358 0001220  51.3961 308.7171 15.80899244  2977
STARLINK-37499          
1 69250U 26117N   26168.15985472  .00170126  00000+0  80532-3 0  9990
2 69250  53.1569 243.4941 0001225  54.8893 305.2245 15.82005088  2973
STARLINK-37489          
1 69251U 26117P   26168.15809564  .00180428  00000+0  85309-3 0  9991
2 69251  53.1573 243.4828 0000921  77.2883 282.8243 15.81999240  2972
STARLINK-37434          
1 69252U 26117Q   26168.15512352  .00116157  00000+0  55423-3 0  9990
2 69252  53.1569 243.4604 0000789  92.0784 268.0329 15.82010534  2979
STARLINK-37368          
1 69253U 26117R   26168.14838025  .00160493  00000+0  76096-3 0  9999
2 69253  53.1574 243.4160 0000966  78.8773 281.2358 15.81999633  2974
STARLINK-37517          
1 69254U 26117S   26168.14706133  .00182777  00000+0  86269-3 0  9996
2 69254  53.1571 243.4071 0000804  51.0468 309.0627 15.82029899  2975
STARLINK-37378          
1 69255U 26117T   26168.14673008  .00192701  00000+0  90827-3 0  9994
2 69255  53.1574 243.4048 0001260  36.4381 323.6728 15.82030705  2973
STARLINK-37396          
1 69256U 26117U   26168.14427708  .00139763  00000+0  66417-3 0  9996
2 69256  53.1568 243.3854 0000853  31.6343 328.4731 15.82016803  2973
STARLINK-37508          
1 69257U 26117V   26168.14640333  .00126175  00000+0  63415-3 0  9996
2 69257  53.1575 243.4001 0001057  26.8804 333.2274 15.80850708  2976
STARLINK-37276          
1 69258U 26117W   26168.11944632  .00224873  00000+0  11096-2 0  9994
2 69258  53.1569 243.2162 0000811 110.3208 249.7901 15.80947432  2979
STARLINK-37518          
1 69259U 26117X   26168.12067566  .00068114  00000+0  34518-3 0  9997
2 69259  53.1569 243.2250 0001366  33.7241 326.3868 15.80919416  2974
STARLINK-37478          
1 69260U 26117Y   26168.12090352  .00159850  00000+0  79746-3 0  9998
2 69260  53.1574 243.2276 0001170  33.9597 326.1500 15.80901587  2970
STARLINK-37506          
1 69261U 26117Z   26168.12041148  .00220609  00000+0  10897-2 0  9990
2 69261  53.1570 243.2229 0001110 119.5232 240.5902 15.80937053  2978
STARLINK-37503          
1 69262U 26117AA  26168.12015247  .00138413  00000+0  69359-3 0  9991
2 69262  53.1575 243.2208 0000985 122.3533 237.7585 15.80873862  2978
STARLINK-37502          
1 69263U 26117AB  26168.11964009  .00218211  00000+0  10779-2 0  9996
2 69263  53.1572 243.2174 0000800 107.5683 252.5427 15.80942612  2975
STARLINK-37486          
1 69264U 26117AC  26168.11842002  .00227251  00000+0  11210-2 0  9990
2 69264  53.1570 243.2084 0000916 134.7341 225.3756 15.80947616  2977
STARLINK-37435          
1 69265U 26117AD  26168.11991062  .00161127  00000+0  80414-3 0  9994
2 69265  53.1570 243.2183 0001355  29.6797 330.4302 15.80888994  2971
STARLINK-37464          
1 69266U 26117AE  26168.11550304  .00243858  00000+0  11395-2 0  9998
2 69266  53.1566 243.1882 0001130 123.4830 236.6301 15.82072642  2977
KUIPER-00282            
1 69267U 26118A   26168.15706137 -.00031189  00000+0 -91785-3 0  9997
2 69267  51.8593  53.7139 0011775 181.2679 178.8278 15.34215628  3973
KUIPER-00383            
1 69268U 26118B   26168.15402679 -.00017252  00000+0 -50005-3 0  9997
2 69268  51.8594  53.6946 0009747 182.7295 177.3639 15.34343077  3971
KUIPER-00527            
1 69269U 26118C   26168.14937734 -.00024688  00000+0 -71136-3 0  9991
2 69269  51.8626  53.6670 0009396 171.6619 188.4524 15.34774225  3978
KUIPER-00562            
1 69270U 26118D   26168.11632544  .00019427  00000+0  51016-3 0  9999
2 69270  51.8723  53.4544 0001741 111.7109 248.4063 15.38628923  3973
KUIPER-00570            
1 69271U 26118E   26168.15169705  .00020076  00000+0  59839-3 0  9991
2 69271  51.8584  53.6788 0011433 185.0464 175.0407 15.34598618  3978
KUIPER-00572            
1 69272U 26118F   26168.13552275  .00018706  00000+0  51764-3 0  9994
2 69272  51.8683  53.5844 0006977 170.5287 189.5832 15.37015047  3975
KUIPER-00581            
1 69273U 26118G   26168.07440979  .00018055  00000+0  50577-3 0  9993
2 69273  51.8667  53.9217 0008770 174.6713 185.4369 15.36646917  4053
KUIPER-00584            
1 69274U 26118H   26168.16668980  .00056293  00000+0  16652-2 0  9999
2 69274  51.8608  53.6358 0011616 186.4014 244.0069 15.34301389  2573
KUIPER-00587            
1 69275U 26118J   26168.13879973  .00017352  00000+0  48594-3 0  9997
2 69275  51.8635  53.6009 0008115 177.6641 182.4385 15.36690527  3973
